{
  "type": "FeatureCollection",
  "features": [
    {
      "type": "Feature",
      "properties": {
        "norad_id": 66816,
        "name": "STARLINK-36098",
        "group": "last-30-days",
        "lat": -37.650626914280544,
        "lon": -170.3518580354503,
        "alt_km": 315.1826520558052,
        "timestamp": "2025-12-13T18:50:03.174221+00:00",
        "meta_object_name": "STARLINK-36098",
        "meta_object_id": "2025-278AB",
        "meta_epoch": "2025-12-13T03:59:19.384512",
        "meta_mean_motion": 15.8641786,
        "meta_eccentricity": 0.00030899,
        "meta_inclination": 42.9975,
        "meta_ra_of_asc_node": 249.3605,
        "meta_arg_of_pericenter": 273.4352,
        "meta_mean_anomaly": 86.6168,
        "meta_ephemeris_type": 0,
        "meta_classification_type": "U",
        "meta_norad_cat_id": 66816,
        "meta_element_set_no": 999,
        "meta_rev_at_epoch": 190,
        "meta_bstar": -0.0019922667,
        "meta_mean_motion_dot": -0.00491007,
        "meta_mean_motion_ddot": 0,
        "tle_line1": "1 66816U 25278AB  25347.16619658 -.00491007  00000+0 -19923-2 0  9992",
        "tle_line2": "2 66816  42.9975 249.3605 0003089 273.4352  86.6168 15.86417860  1901"
      },
      "geometry": {
        "type": "Point",
        "coordinates": [
          -170.3518580354503,
          -37.650626914280544
        ]
      }
    },
    {
      "type": "Feature",
      "properties": {
        "norad_id": 66817,
        "name": "STARLINK-35995",
        "group": "last-30-days",
        "lat": -36.04967905792058,
        "lon": -165.8342340762033,
        "alt_km": 311.02629504546803,
        "timestamp": "2025-12-13T18:50:03.174231+00:00",
        "meta_object_name": "STARLINK-35995",
        "meta_object_id": "2025-278AC",
        "meta_epoch": "2025-12-13T03:58:44.760576",
        "meta_mean_motion": 15.86681031,
        "meta_eccentricity": 0.00046485,
        "meta_inclination": 42.9976,
        "meta_ra_of_asc_node": 249.3573,
        "meta_arg_of_pericenter": 265.5675,
        "meta_mean_anomaly": 94.4668,
        "meta_ephemeris_type": 0,
        "meta_classification_type": "U",
        "meta_norad_cat_id": 66817,
        "meta_element_set_no": 999,
        "meta_rev_at_epoch": 190,
        "meta_bstar": 0.0010423355,
        "meta_mean_motion_dot": 0.0028303,
        "meta_mean_motion_ddot": 0,
        "tle_line1": "1 66817U 25278AC  25347.16579584  .00283030  00000+0  10423-2 0  9995",
        "tle_line2": "2 66817  42.9976 249.3573 0004648 265.5675  94.4668 15.86681031  1904"
      },
      "geometry": {
        "type": "Point",
        "coordinates": [
          -165.8342340762033,
          -36.04967905792058
        ]
      }
    },
    {
      "type": "Feature",
      "properties": {
        "norad_id": 66818,
        "name": "STARLINK-35994",
        "group": "last-30-days",
        "lat": -37.58163889992259,
        "lon": -170.14195795061252,
        "alt_km": 314.85708318979414,
        "timestamp": "2025-12-13T18:50:03.174241+00:00",
        "meta_object_name": "STARLINK-35994",
        "meta_object_id": "2025-278AD",
        "meta_epoch": "2025-12-13T03:59:19.671360",
        "meta_mean_motion": 15.86415489,
        "meta_eccentricity": 0.00028361,
        "meta_inclination": 42.9975,
        "meta_ra_of_asc_node": 249.361,
        "meta_arg_of_pericenter": 274.2297,
        "meta_mean_anomaly": 85.8252,
        "meta_ephemeris_type": 0,
        "meta_classification_type": "U",
        "meta_norad_cat_id": 66818,
        "meta_element_set_no": 999,
        "meta_rev_at_epoch": 190,
        "meta_bstar": -0.0014167145,
        "meta_mean_motion_dot": -0.00354579,
        "meta_mean_motion_ddot": 0,
        "tle_line1": "1 66818U 25278AD  25347.16619990 -.00354579  00000+0 -14167-2 0  9990",
        "tle_line2": "2 66818  42.9975 249.3610 0002836 274.2297  85.8252 15.86415489  1905"
      },
      "geometry": {
        "type": "Point",
        "coordinates": [
          -170.14195795061252,
          -37.58163889992259
        ]
      }
    },
    {
      "type": "Feature",
      "properties": {
        "norad_id": 66819,
        "name": "STARLINK-35989",
        "group": "last-30-days",
        "lat": -32.04910957824541,
        "lon": -156.70016257920673,
        "alt_km": 304.4159468108501,
        "timestamp": "2025-12-13T18:50:03.174251+00:00",
        "meta_object_name": "STARLINK-35989",
        "meta_object_id": "2025-278AE",
        "meta_epoch": "2025-12-13T02:25:59.508480",
        "meta_mean_motion": 15.87984782,
        "meta_eccentricity": 0.00193199,
        "meta_inclination": 42.9981,
        "meta_ra_of_asc_node": 249.7349,
        "meta_arg_of_pericenter": 275.1685,
        "meta_mean_anomaly": 84.6984,
        "meta_ephemeris_type": 0,
        "meta_classification_type": "U",
        "meta_norad_cat_id": 66819,
        "meta_element_set_no": 999,
        "meta_rev_at_epoch": 189,
        "meta_bstar": -0.0055008218,
        "meta_mean_motion_dot": -0.01562027,
        "meta_mean_motion_ddot": 0.00065817872,
        "tle_line1": "1 66819U 25278AE  25347.10138320 -.01562027  65818-3 -55008-2 0  9999",
        "tle_line2": "2 66819  42.9981 249.7349 0019319 275.1685  84.6984 15.87984782  1896"
      },
      "geometry": {
        "type": "Point",
        "coordinates": [
          -156.70016257920673,
          -32.04910957824541
        ]
      }
    },
    {
      "type": "Feature",
      "properties": {
        "norad_id": 66820,
        "name": "KOMPSAT-7",
        "group": "last-30-days",
        "lat": -40.6674579999459,
        "lon": 107.00740506534615,
        "alt_km": 570.6338367133558,
        "timestamp": "2025-12-13T18:50:03.174265+00:00",
        "meta_object_name": "KOMPSAT-7",
        "meta_object_id": "2025-279A",
        "meta_epoch": "2025-12-13T06:38:09.996576",
        "meta_mean_motion": 14.98956981,
        "meta_eccentricity": 0.00087179,
        "meta_inclination": 97.6411,
        "meta_ra_of_asc_node": 293.1325,
        "meta_arg_of_pericenter": 223.3603,
        "meta_mean_anomaly": 136.6935,
        "meta_ephemeris_type": 0,
        "meta_classification_type": "U",
        "meta_norad_cat_id": 66820,
        "meta_element_set_no": 999,
        "meta_rev_at_epoch": 173,
        "meta_bstar": 0.00037147141,
        "meta_mean_motion_dot": 4.441e-05,
        "meta_mean_motion_ddot": 0,
        "tle_line1": "1 66820U 25279A   25347.27650459  .00004441  00000+0  37147-3 0  9993",
        "tle_line2": "2 66820  97.6411 293.1325 0008717 223.3603 136.6935 14.98956981  1733"
      },
      "geometry": {
        "type": "Point",
        "coordinates": [
          107.00740506534615,
          -40.6674579999459
        ]
      }
    },
    {
      "type": "Feature",
      "properties": {
        "norad_id": 66821,
        "name": "STARLINK-35966",
        "group": "last-30-days",
        "lat": -1.7723689636121926,
        "lon": 16.510566035216907,
        "alt_km": 339.9964210358794,
        "timestamp": "2025-12-13T18:50:03.174278+00:00",
        "meta_object_name": "STARLINK-35966",
        "meta_object_id": "2025-280A",
        "meta_epoch": "2025-12-13T07:25:02.611200",
        "meta_mean_motion": 15.78418618,
        "meta_eccentricity": 0.00036963,
        "meta_inclination": 69.9926,
        "meta_ra_of_asc_node": 197.218,
        "meta_arg_of_pericenter": 286.2434,
        "meta_mean_anomaly": 73.8359,
        "meta_ephemeris_type": 0,
        "meta_classification_type": "U",
        "meta_norad_cat_id": 66821,
        "meta_element_set_no": 999,
        "meta_rev_at_epoch": 301,
        "meta_bstar": -0.0037794284,
        "meta_mean_motion_dot": -0.00611112,
        "meta_mean_motion_ddot": 0,
        "tle_line1": "1 66821U 25280A   25347.30905800 -.00611112  00000+0 -37794-2 0  9991",
        "tle_line2": "2 66821  69.9926 197.2180 0003696 286.2434  73.8359 15.78418618  3015"
      },
      "geometry": {
        "type": "Point",
        "coordinates": [
          16.510566035216907,
          -1.7723689636121926
        ]
      }
    },
    {
      "type": "Feature",
      "properties": {
        "norad_id": 66822,
        "name": "STARLINK-35958",
        "group": "last-30-days",
        "lat": -3.6425288752087126,
        "lon": 17.191475557633705,
        "alt_km": 339.8299133098981,
        "timestamp": "2025-12-13T18:50:03.174288+00:00",
        "meta_object_name": "STARLINK-35958",
        "meta_object_id": "2025-280B",
        "meta_epoch": "2025-12-13T07:24:33.109056",
        "meta_mean_motion": 15.78443914,
        "meta_eccentricity": 0.00038389,
        "meta_inclination": 69.9924,
        "meta_ra_of_asc_node": 197.2168,
        "meta_arg_of_pericenter": 281.2228,
        "meta_mean_anomaly": 78.8541,
        "meta_ephemeris_type": 0,
        "meta_classification_type": "U",
        "meta_norad_cat_id": 66822,
        "meta_element_set_no": 999,
        "meta_rev_at_epoch": 301,
        "meta_bstar": -0.0036793441,
        "meta_mean_motion_dot": -0.00596639,
        "meta_mean_motion_ddot": 0,
        "tle_line1": "1 66822U 25280B   25347.30871654 -.00596639  00000+0 -36793-2 0  9995",
        "tle_line2": "2 66822  69.9924 197.2168 0003838 281.2228  78.8541 15.78443914  3019"
      },
      "geometry": {
        "type": "Point",
        "coordinates": [
          17.191475557633705,
          -3.6425288752087126
        ]
      }
    }
  ]
}